prediction:
  azimuth_start: 352
  azimuth_stop: 259
  azimuth_tca: null
  max_elevation: 8
  tca: null
  time_start: 2020-04-29 10:32:00
  time_stop: 2020-04-29 10:43:00
satellite:
  name: Delfi-C3
  noradid: '32789'
  tle:
    line1: 1 32789U 08021G   20119.15981739 +.00001048 +00000-0 +72691-4 0  9998
    line2: 2 32789 097.4232 163.7096 0013600 124.5275 235.7239 15.07627112654239
station:
  name: DopTrack
  position:
    altitude: 95
    latitude: 51.9989
    longitude: 4.3733585
tracking:
  epoch: 2020-04-29 10:32:04.138944
  fca: 145868029.1852693
  fca_error: 0.25690327317973416
  tca: 2020-04-29 10:37:55.905691
  tca_error: 0.023516467928858843
